[{"OBJECT_NAME":"JILIN-1 GAOFEN 03D12","OBJECT_ID":"2022-019T","EPOCH":"2026-03-09T23:55:09.134400","MEAN_MOTION":15.69542894,"ECCENTRICITY":0.00024096,"INCLINATION":97.3665,"RA_OF_ASC_NODE":160.1413,"ARG_OF_PERICENTER":153.7003,"MEAN_ANOMALY":206.4382,"EPHEMERIS_TYPE":0,"CLASSIFICATION_TYPE":"U","NORAD_CAT_ID":51841,"ELEMENT_SET_NO":999,"REV_AT_EPOCH":22441,"BSTAR":0.0010852586,"MEAN_MOTION_DOT":0.00129444,"MEAN_MOTION_DDOT":0},{"OBJECT_NAME":"STARLINK-11168 [DTC]","OBJECT_ID":"2024-124A","EPOCH":"2026-03-09T13:15:35.362368","MEAN_MOTION":15.6969852,"ECCENTRICITY":9.606e-5,"INCLINATION":53.1596,"RA_OF_ASC_NODE":161.8566,"ARG_OF_PERICENTER":66.4908,"MEAN_ANOMALY":293.621,"EPHEMERIS_TYPE":0,"CLASSIFICATION_TYPE":"U","NORAD_CAT_ID":60183,"ELEMENT_SET_NO":999,"REV_AT_EPOCH":9770,"BSTAR":-5.967838e-6,"MEAN_MOTION_DOT":-1.311e-5,"MEAN_MOTION_DDOT":0}]
